{"type": "FeatureCollection", "features": [ {"type": "Feature", "properties": {"norad_id": 30386, "name": "FENGYUN 1C DEB", "group": "fengyun-1c-debris", "lat": -0.09343361980406126, "lon": -120.71711652232572, "alt_km": 1270.949091835767, "timestamp": "2025-12-09T14:52:26.437881+00:00", "meta": {"OBJECT_NAME": "FENGYUN 1C DEB", "OBJECT_ID": "1999-025ACZ", "EPOCH": "2025-12-08T16:07:53.853312", "MEAN_MOTION": 13.55555171, "ECCENTRICITY": 0.03035726, "INCLINATION": 98.6906, "RA_OF_ASC_NODE": 238.4321, "ARG_OF_PERICENTER": 166.3977, "MEAN_ANOMALY": 252.7695, "EPHEMERIS_TYPE": 0, "CLASSIFICATION_TYPE": "U", "NORAD_CAT_ID": 30386, "ELEMENT_SET_NO": 999, "REV_AT_EPOCH": 92774, "BSTAR": 0.0022102799, "MEAN_MOTION_DOT": 2.029e-05, "MEAN_MOTION_DDOT": 0}, "tle": {"line1": "1 30386U 99025ACZ 25342.67215108  .00002029  00000+0  22103-2 0  9993", "line2": "2 30386  98.6906 238.4321 0303572 166.3977 252.7695 13.55555171927745"}}, "geometry": {"type": "Point", "coordinates": [-120.71711652232572, -0.09343361980406126]}}, {"type": "Feature", "properties": {"norad_id": 30387, "name": "FENGYUN 1C DEB", "group": "fengyun-1c-debris", "lat": 25.391991748559683, "lon": -177.07095217202954, "alt_km": 840.8398748519367, "timestamp": "2025-12-09T14:52:26.437892+00:00", "meta": {"OBJECT_NAME": "FENGYUN 1C DEB", "OBJECT_ID": "1999-025ADA", "EPOCH": "2025-12-09T00:50:21.291360", "MEAN_MOTION": 14.15046551, "ECCENTRICITY": 0.00011794, "INCLINATION": 98.6567, "RA_OF_ASC_NODE": 358.2149, "ARG_OF_PERICENTER": 97.9849, "MEAN_ANOMALY": 318.8924, "EPHEMERIS_TYPE": 0, "CLASSIFICATION_TYPE": "U", "NORAD_CAT_ID": 30387, "ELEMENT_SET_NO": 999, "REV_AT_EPOCH": 97272, "BSTAR": 0.00036743246, "MEAN_MOTION_DOT": 6.69e-06, "MEAN_MOTION_DDOT": 0}, "tle": {"line1": "1 30387U 99025ADA 25343.03496865  .00000669  00000+0  36743-3 0  9990", "line2": "2 30387  98.6567 358.2149 0001179  97.9849 318.8924 14.15046551972724"}}, "geometry": {"type": "Point", "coordinates": [-177.07095217202954, 25.391991748559683]}}, {"type": "Feature", "properties": {"norad_id": 30388, "name": "FENGYUN 1C DEB", "group": "fengyun-1c-debris", "lat": 12.920892519770025, "lon": 2.3836160966955813, "alt_km": 741.2812358906604, "timestamp": "2025-12-09T14:52:26.437902+00:00", "meta": {"OBJECT_NAME": "FENGYUN 1C DEB", "OBJECT_ID": "1999-025ADB", "EPOCH": "2025-12-09T01:22:00.315840", "MEAN_MOTION": 14.19754743, "ECCENTRICITY": 0.02222715, "INCLINATION": 98.5995, "RA_OF_ASC_NODE": 3.8259, "ARG_OF_PERICENTER": 73.419, "MEAN_ANOMALY": 306.9965, "EPHEMERIS_TYPE": 0, "CLASSIFICATION_TYPE": "U", "NORAD_CAT_ID": 30388, "ELEMENT_SET_NO": 999, "REV_AT_EPOCH": 97380, "BSTAR": 0.00061229184, "MEAN_MOTION_DOT": 1.616e-05, "MEAN_MOTION_DDOT": 0}, "tle": {"line1": "1 30388U 99025ADB 25343.05694810  .00001616  00000+0  61229-3 0  9993", "line2": "2 30388  98.5995   3.8259 0222271  73.4190 306.9965 14.19754743973806"}}, "geometry": {"type": "Point", "coordinates": [2.3836160966955813, 12.920892519770025]}}, {"type": "Feature", "properties": {"norad_id": 30389, "name": "FENGYUN 1C DEB", "group": "fengyun-1c-debris", "lat": 31.19067051349477, "lon": -109.85758469759078, "alt_km": 741.9894974481058, "timestamp": "2025-12-09T14:52:26.437913+00:00", "meta": {"OBJECT_NAME": "FENGYUN 1C DEB", "OBJECT_ID": "1999-025ADC", "EPOCH": "2025-12-09T04:30:09.026208", "MEAN_MOTION": 14.43965386, "ECCENTRICITY": 0.0014034, "INCLINATION": 98.8374, "RA_OF_ASC_NODE": 64.2893, "ARG_OF_PERICENTER": 230.1565, "MEAN_ANOMALY": 193.1665, "EPHEMERIS_TYPE": 0, "CLASSIFICATION_TYPE": "U", "NORAD_CAT_ID": 30389, "ELEMENT_SET_NO": 999, "REV_AT_EPOCH": 97735, "BSTAR": 0.0028722332, "MEAN_MOTION_DOT": 9.788e-05, "MEAN_MOTION_DDOT": 0}, "tle": {"line1": "1 30389U 99025ADC 25343.18760447  .00009788  00000+0  28722-2 0  9996", "line2": "2 30389  98.8374  64.2893 0014034 230.1565 193.1665 14.43965386977351"}}, "geometry": {"type": "Point", "coordinates": [-109.85758469759078, 31.19067051349477]}}, {"type": "Feature", "properties": {"norad_id": 30390, "name": "FENGYUN 1C DEB", "group": "fengyun-1c-debris", "lat": 28.54976972572602, "lon": -108.36745120338564, "alt_km": 746.1652939861142, "timestamp": "2025-12-09T14:52:26.437923+00:00", "meta": {"OBJECT_NAME": "FENGYUN 1C DEB", "OBJECT_ID": "1999-025ADD", "EPOCH": "2025-12-09T04:23:34.909152", "MEAN_MOTION": 14.29676745, "ECCENTRICITY": 0.0068203, "INCLINATION": 98.8221, "RA_OF_ASC_NODE": 66.3432, "ARG_OF_PERICENTER": 174.637, "MEAN_ANOMALY": 250.2439, "EPHEMERIS_TYPE": 0, "CLASSIFICATION_TYPE": "U", "NORAD_CAT_ID": 30390, "ELEMENT_SET_NO": 999, "REV_AT_EPOCH": 97333, "BSTAR": 0.0024037042, "MEAN_MOTION_DOT": 6.279e-05, "MEAN_MOTION_DDOT": 0}, "tle": {"line1": "1 30390U 99025ADD 25343.18304293  .00006279  00000+0  24037-2 0  9998", "line2": "2 30390  98.8221  66.3432 0068203 174.6370 250.2439 14.29676745973339"}}, "geometry": {"type": "Point", "coordinates": [-108.36745120338564, 28.54976972572602]}}, {"type": "Feature", "properties": {"norad_id": 30391, "name": "FENGYUN 1C DEB", "group": "fengyun-1c-debris", "lat": -35.425278149791076, "lon": -156.64535612312142, "alt_km": 814.8191084397176, "timestamp": "2025-12-09T14:52:26.437934+00:00", "meta": {"OBJECT_NAME": "FENGYUN 1C DEB", "OBJECT_ID": "1999-025ADE", "EPOCH": "2025-12-09T02:14:27.186144", "MEAN_MOTION": 14.16210933, "ECCENTRICITY": 0.00712897, "INCLINATION": 98.7805, "RA_OF_ASC_NODE": 29.1476, "ARG_OF_PERICENTER": 272.545, "MEAN_ANOMALY": 141.7591, "EPHEMERIS_TYPE": 0, "CLASSIFICATION_TYPE": "U", "NORAD_CAT_ID": 30391, "ELEMENT_SET_NO": 999, "REV_AT_EPOCH": 96827, "BSTAR": 0.0013999589, "MEAN_MOTION_DOT": 2.798e-05, "MEAN_MOTION_DDOT": 0}, "tle": {"line1": "1 30391U 99025ADE 25343.09337021  .00002798  00000+0  14000-2 0  9995", "line2": "2 30391  98.7805  29.1476 0071289 272.5450 141.7591 14.16210933968276"}}, "geometry": {"type": "Point", "coordinates": [-156.64535612312142, -35.425278149791076]}}, {"type": "Feature", "properties": {"norad_id": 30392, "name": "FENGYUN 1C DEB", "group": "fengyun-1c-debris", "lat": -55.731301868748496, "lon": 15.407701715590079, "alt_km": 812.3576197186967, "timestamp": "2025-12-09T14:52:26.437944+00:00", "meta": {"OBJECT_NAME": "FENGYUN 1C DEB", "OBJECT_ID": "1999-025ADF", "EPOCH": "2025-12-08T19:31:30.931680", "MEAN_MOTION": 14.07438334, "ECCENTRICITY": 0.01811488, "INCLINATION": 98.7855, "RA_OF_ASC_NODE": 1.5047, "ARG_OF_PERICENTER": 7.9398, "MEAN_ANOMALY": 174.652, "EPHEMERIS_TYPE": 0, "CLASSIFICATION_TYPE": "U", "NORAD_CAT_ID": 30392, "ELEMENT_SET_NO": 999, "REV_AT_EPOCH": 96615, "BSTAR": 0.001281195, "MEAN_MOTION_DOT": 2.462e-05, "MEAN_MOTION_DDOT": 0}, "tle": {"line1": "1 30392U 99025ADF 25342.81355245  .00002462  00000+0  12812-2 0  9990", "line2": "2 30392  98.7855   1.5047 0181148   7.9398 174.6520 14.07438334966156"}}, "geometry": {"type": "Point", "coordinates": [15.407701715590079, -55.731301868748496]}}, {"type": "Feature", "properties": {"norad_id": 30393, "name": "FENGYUN 1C DEB", "group": "fengyun-1c-debris", "lat": 46.76310287154989, "lon": -128.70795109253027, "alt_km": 929.5103137705355, "timestamp": "2025-12-09T14:52:26.437954+00:00", "meta": {"OBJECT_NAME": "FENGYUN 1C DEB", "OBJECT_ID": "1999-025ADG", "EPOCH": "2025-12-09T04:17:20.323680", "MEAN_MOTION": 13.98979479, "ECCENTRICITY": 0.00694816, "INCLINATION": 99.1646, "RA_OF_ASC_NODE": 40.9653, "ARG_OF_PERICENTER": 269.8457, "MEAN_ANOMALY": 163.0499, "EPHEMERIS_TYPE": 0, "CLASSIFICATION_TYPE": "U", "NORAD_CAT_ID": 30393, "ELEMENT_SET_NO": 999, "REV_AT_EPOCH": 96280, "BSTAR": 0.00041926123, "MEAN_MOTION_DOT": 5.73e-06, "MEAN_MOTION_DDOT": 0}, "tle": {"line1": "1 30393U 99025ADG 25343.17870745  .00000573  00000+0  41926-3 0  9998", "line2": "2 30393  99.1646  40.9653 0069481 269.8457 163.0499 13.98979479962804"}}, "geometry": {"type": "Point", "coordinates": [-128.70795109253027, 46.76310287154989]}}, {"type": "Feature", "properties": {"norad_id": 30394, "name": "FENGYUN 1C DEB", "group": "fengyun-1c-debris", "lat": 40.37681165670784, "lon": -160.06140223740726, "alt_km": 847.7635268139829, "timestamp": "2025-12-09T14:52:26.437965+00:00", "meta": {"OBJECT_NAME": "FENGYUN 1C DEB", "OBJECT_ID": "1999-025ADH", "EPOCH": "2025-12-09T00:45:58.089312", "MEAN_MOTION": 13.95782456, "ECCENTRICITY": 0.0089949, "INCLINATION": 99.4354, "RA_OF_ASC_NODE": 11.2077, "ARG_OF_PERICENTER": 111.3531, "MEAN_ANOMALY": 314.8783, "EPHEMERIS_TYPE": 0, "CLASSIFICATION_TYPE": "U", "NORAD_CAT_ID": 30394, "ELEMENT_SET_NO": 999, "REV_AT_EPOCH": 96052, "BSTAR": 0.00054476559, "MEAN_MOTION_DOT": 7.23e-06, "MEAN_MOTION_DDOT": 0}, "tle": {"line1": "1 30394U 99025ADH 25343.03192233  .00000723  00000+0  54477-3 0  9995", "line2": "2 30394  99.4354  11.2077 0089949 111.3531 314.8783 13.95782456960523"}}, "geometry": {"type": "Point", "coordinates": [-160.06140223740726, 40.37681165670784]}}, {"type": "Feature", "properties": {"norad_id": 30395, "name": "FENGYUN 1C DEB", "group": "fengyun-1c-debris", "lat": -78.53304235875302, "lon": 50.09196289129078, "alt_km": 965.1930510497659, "timestamp": "2025-12-09T14:52:26.437975+00:00", "meta": {"OBJECT_NAME": "FENGYUN 1C DEB", "OBJECT_ID": "1999-025ADJ", "EPOCH": "2025-12-09T00:05:58.354368", "MEAN_MOTION": 13.96683489, "ECCENTRICITY": 0.0160662, "INCLINATION": 98.9309, "RA_OF_ASC_NODE": 358.6729, "ARG_OF_PERICENTER": 36.4428, "MEAN_ANOMALY": 28.8361, "EPHEMERIS_TYPE": 0, "CLASSIFICATION_TYPE": "U", "NORAD_CAT_ID": 30395, "ELEMENT_SET_NO": 999, "REV_AT_EPOCH": 95971, "BSTAR": 0.00069481, "MEAN_MOTION_DOT": 1.032e-05, "MEAN_MOTION_DDOT": 0}, "tle": {"line1": "1 30395U 99025ADJ 25343.00414762  .00001032  00000+0  69481-3 0  9992", "line2": "2 30395  98.9309 358.6729 0160662  36.4428  28.8361 13.96683489959714"}}, "geometry": {"type": "Point", "coordinates": [50.09196289129078, -78.53304235875302]}}]}